#dP2024 11 16  0  0  0.00000000      96 __u+U IGS20 EXT  IAC
## 2340 518400.00000000   900.00000000 60630 0.0000000000000
+   50   G02G03G04G05G06G07G08G09G10G11G12G13G14G15G16G17G18
+        G20G21G22G23G24G25G26G27G28G29G30G31G32R01R03R04R05
+        R07R08R09R11R12R14R15R16R17R18R19R20R21R22R24R26  0
+          0  0  0  0  0  0  0  0  0  0  0  0  0  0  0  0  0
+          0  0  0  0  0  0  0  0  0  0  0  0  0  0  0  0  0
++         7  7  7  7  7  7  7  7  8  5  8  6  6  8  9  7  7
++         7  6  6  7  6  7  9  7  8  8  7  7  7  8  9  7 10
++         8  7  8  8  6  7  9 10  7  8  7  7  6  6  7  8  0
++         0  0  0  0  0  0  0  0  0  0  0  0  0  0  0  0  0
++         0  0  0  0  0  0  0  0  0  0  0  0  0  0  0  0  0
%c M  cc GPS ccc cccc cccc cccc cccc ccccc ccccc ccccc ccccc
%c cc cc ccc ccc cccc cccc cccc cccc ccccc ccccc ccccc ccccc
%f  0.0000000  0.000000000  0.00000000000  0.000000000000000
%f  0.0000000  0.000000000  0.00000000000  0.000000000000000
%i    0    0    0    0      0      0      0      0         0
%i    0    0    0    0      0      0      0      0         0
/* IAC                                ULTRA-RAPID PREDICTION
/* S/V CLOCKS ARE ALIGNED TO GNSS TIME                      
/* G:C1WC2W R:C1PC2P E:C1XC5X C:C2IC6I J:C1CC2S             
/* PCV:IGS20_2317 OL/AL:FES2004  NONE     YN ORB:CoN CLK:CoN
*  2024 11 16  6  0  0.00000000
PG02  21888.322522  13770.916519  -6357.221356   -313.507020
PG03  12161.848185  15843.553619  17397.863970    601.088377
PG04  17053.069533   5648.627246  19627.160110    480.267759
PG05  -5607.652028 -25541.948353  -4627.541529   -193.144165
PG06  11238.669486 -10266.965133  21852.690233   -118.253040
PG07  24524.082795   5734.098860  -8582.880420    -19.884179
PG08   7049.923912  13896.990553 -21601.305144    414.783471
PG09  22385.391319  -3522.466546  13811.784918    445.783698
PG10 -10534.336396  16998.001349 -17078.096403   -197.624711
PG11  -3100.867513 -17544.078511  19755.559661   -750.254988
PG12  -9620.741635 -19961.599467  14388.427921   -552.378759
PG13   2878.134402 -16752.847759 -20578.997507    686.215329
PG14  13212.165792 -13186.004149 -18762.221647    540.765482
PG15  -9110.230865 -13225.191724 -21672.448443    228.340132
PG16   -511.617563  26303.775262   -715.919931   -127.193423
PG17  22709.887870 -13932.208492   1481.148907    556.850972
PG18 -23763.134891  -4040.863301 -11379.515822   -660.374583
PG20   -179.796482 -25462.288142   7890.480639    368.696933
PG21  18047.980847  16104.401027 -11728.262632     97.345104
PG22  10007.307676 -20768.530357 -13059.899114    -79.750465
PG23 -14573.116116   2380.908109 -22032.022161    364.215603
PG24 -20113.400719 -15304.242179  -9264.372881   -479.976861
PG25 -15158.280795  -6456.030062  20533.642294    498.969389
PG26  -5381.529186  23143.088846  11291.676864     24.559167
PG27  -4691.979896  18589.977212 -18492.246664    -34.702627
PG28 -13159.740011   9857.567230  20845.558680   -480.378651
PG29 -22342.983404    854.536788  14390.815846   -563.437381
PG30  19603.290346  -4345.709891 -17368.406801   -280.965694
PG31  -2388.268920  15665.767473  21017.773362   -221.680830
PG32 -20428.183203  16453.408982   3616.354244   -573.067545
PR01  16956.731990 -12058.032278  14748.526674    104.578496
PR03   3646.290277 -18403.771607 -17275.296309    111.478463
PR04  -8836.107690  -5997.579197 -23139.885177    264.192812
PR05 -16871.817811   9412.124661 -16631.899553    140.766126
PR07  -3206.022069  18099.496416  17692.807048     95.080712
PR08   9217.874200   5717.189354  23143.339516     -6.252610
PR09  -3025.976839  16206.797557  19511.440689    220.818997
PR11  13643.355530  19161.101203  -9882.512110      6.822070
PR12  12306.760702   1489.444849 -22270.747768     47.294583
PR14  -7521.015188 -23659.370009  -5809.997998     27.239459
PR15 -13912.817732 -18038.067556  11486.603756     74.073734
PR16 -12237.747111  -1664.669161  22319.143673     30.835918
PR17  -6719.478152 -11029.520774  22021.588885    140.286151
PR18 -21064.352277  -8265.496432  11755.283022    172.106332
PR19 -25184.572080  -2998.709416  -2765.011513   -298.615954
PR20 -13657.063512   6923.802435 -20373.464590   -121.994120
PR21   5481.273842  10990.584081 -22342.554516   -151.703574
PR22  21640.591968   8489.039787 -10478.273008    -11.687300
PR24  12881.308086  -8192.673577  20453.331985    -80.317098
PR26   8027.685236   7278.822498  23108.517388   -133.489673
*  2024 11 16  6 15  0.00000000
PG02  20946.107207  13639.122853  -9019.973150   -313.499315
PG03  12186.370117  17746.457479  15463.649621    601.097630
PG04  15161.408263   6960.052234  20715.314828    480.273582
PG05  -5435.528203 -25913.583880  -1772.170025   -193.145289
PG06  13402.498862  -9151.310788  21123.537318   -118.279374
PG07  25219.038010   6336.007839  -5939.414910    -19.882190
PG08   5068.266777  15304.203303 -21159.922054    414.792634
PG09  21112.319526  -2362.303654  15887.231457    445.799026
PG10 -10823.211558  14916.155412 -18768.438313   -197.637720
PG11  -1021.441728 -16532.874666  20812.689119   -750.256407
PG12  -9435.022866 -21522.363025  12132.842891   -552.381018
PG13   4930.807091 -17662.157674 -19359.173017    686.216725
PG14  13484.225230 -10961.469139 -19979.178570    540.772753
PG15  -7372.136615 -14819.554827 -21275.297408    228.344170
PG16   -801.166465  26180.585161   2166.115392   -127.184585
PG17  22793.529944 -13718.865036  -1374.374322    556.837847
PG18 -24715.010338  -4713.616192  -8832.747397   -660.374914
PG20    310.145070 -24519.749330  10463.163576    368.696626
PG21  16595.463477  15731.549710 -13979.780374     97.344276
PG22  10178.238610 -19099.280848 -15204.729537    -79.753067
PG23 -14848.860568   -125.110411 -21996.292575    364.222746
PG24 -18963.015049 -15161.025154 -11690.683777   -479.974877
PG25 -15302.401782  -8815.853786  19566.058102    498.969159
PG26  -5925.061702  21746.819439  13569.210523     24.547460
PG27  -6408.068569  19595.253083 -16798.505143    -34.702550
PG28 -15260.047527   8842.597551  19846.214508   -480.389227
PG29 -20900.977475   -173.042493  16420.796849   -563.434866
PG30  21246.092202  -3352.923604 -15605.302945   -280.958665
PG31  -4635.883050  14599.806042  21434.239931   -221.680248
PG32 -20765.950264  16370.035148    758.592230   -573.062768
PR01  15792.576811 -10472.030366  17069.598120    104.579570
PR03   4686.798460 -20111.862624 -14978.497766    111.479343
PR04  -7188.360134  -8328.556928 -22990.424967    264.194335
PR05 -15504.812801   7703.574998 -18713.161848    140.766563
PR07  -4279.874814  19839.021198  15449.401661     95.081363
PR08   7598.548242   8045.986276  23035.152013     -6.252610
PR09  -4123.638576  13971.285137  20978.008598    220.820921
PR11  14218.563004  20033.509578  -6893.266142      6.821267
PR12  13503.233695   3899.879585 -21262.834821     47.294947
PR14  -7222.631176 -22797.693390  -8840.720420     27.239465
PR15 -14550.660365 -19104.870784   8606.312789     74.073340
PR16 -13448.188454  -4067.906696  21287.120005     30.836132
PR17  -3970.838715 -10732.879405  22817.565168    140.289279
PR18 -19474.619057  -7935.834274  14428.569330    172.107937
PR19 -25354.909217  -2803.119422    474.236606   -298.617074
PR20 -16064.425126   6709.920036 -18611.809134   -121.994576
PR21   2695.689828  10673.636904 -22998.711014   -151.706520
PR22  20199.761644   8182.891709 -13228.245436    -11.697571
PR24  15294.627804  -8057.175381  18772.135622    -80.318535
PR26   6441.395367   9618.117250  22748.113137   -133.489502
EOF
